[{"OBJECT_NAME":"HORS 2","OBJECT_ID":"2023-091AG","EPOCH":"2026-03-09T22:11:34.810944","MEAN_MOTION":15.2928008,"ECCENTRICITY":0.00098173,"INCLINATION":97.5195,"RA_OF_ASC_NODE":134.7443,"ARG_OF_PERICENTER":79.3164,"MEAN_ANOMALY":280.9181,"EPHEMERIS_TYPE":0,"CLASSIFICATION_TYPE":"U","NORAD_CAT_ID":57196,"ELEMENT_SET_NO":999,"REV_AT_EPOCH":14934,"BSTAR":0.00059338338,"MEAN_MOTION_DOT":0.00016821,"MEAN_MOTION_DDOT":0},{"OBJECT_NAME":"STARLINK-30524","OBJECT_ID":"2023-151B","EPOCH":"2026-03-09T03:56:32.838144","MEAN_MOTION":15.2677762,"ECCENTRICITY":0.00010457,"INCLINATION":43,"RA_OF_ASC_NODE":339.1883,"ARG_OF_PERICENTER":274.6135,"MEAN_ANOMALY":85.4596,"EPHEMERIS_TYPE":0,"CLASSIFICATION_TYPE":"U","NORAD_CAT_ID":57965,"ELEMENT_SET_NO":999,"REV_AT_EPOCH":13568,"BSTAR":0.00027520135,"MEAN_MOTION_DOT":7.138e-5,"MEAN_MOTION_DDOT":0}]
